[{"OBJECT_NAME":"UK-DMC 2","OBJECT_ID":"2009-041C","EPOCH":"2026-03-09T23:23:59.777088","MEAN_MOTION":14.75853536,"ECCENTRICITY":0.00010983,"INCLINATION":97.8657,"RA_OF_ASC_NODE":206.4708,"ARG_OF_PERICENTER":90.2478,"MEAN_ANOMALY":269.8858,"EPHEMERIS_TYPE":0,"CLASSIFICATION_TYPE":"U","NORAD_CAT_ID":35683,"ELEMENT_SET_NO":999,"REV_AT_EPOCH":89193,"BSTAR":0.00020221401,"MEAN_MOTION_DOT":1.338e-5,"MEAN_MOTION_DDOT":0},{"OBJECT_NAME":"CZ-6A DEB","OBJECT_ID":"2022-151AFD","EPOCH":"2026-03-07T14:10:37.089984","MEAN_MOTION":14.59353302,"ECCENTRICITY":0.0073369,"INCLINATION":98.627,"RA_OF_ASC_NODE":114.6848,"ARG_OF_PERICENTER":280.6586,"MEAN_ANOMALY":78.6357,"EPHEMERIS_TYPE":0,"CLASSIFICATION_TYPE":"U","NORAD_CAT_ID":56629,"ELEMENT_SET_NO":999,"REV_AT_EPOCH":15183,"BSTAR":0.0023301,"MEAN_MOTION_DOT":0.00011408,"MEAN_MOTION_DDOT":0}]
